[{"OBJECT_NAME":"COSMOS 2251 DEB","OBJECT_ID":"1993-036PR","EPOCH":"2026-03-03T16:39:00.739584","MEAN_MOTION":14.71048214,"ECCENTRICITY":0.0022778,"INCLINATION":74.0186,"RA_OF_ASC_NODE":292.3737,"ARG_OF_PERICENTER":189.7538,"MEAN_ANOMALY":226.8298,"EPHEMERIS_TYPE":0,"CLASSIFICATION_TYPE":"U","NORAD_CAT_ID":34343,"ELEMENT_SET_NO":999,"REV_AT_EPOCH":89920,"BSTAR":0.0014166,"MEAN_MOTION_DOT":8.715e-5,"MEAN_MOTION_DDOT":0},{"OBJECT_NAME":"COSMOS 2251 DEB","OBJECT_ID":"1993-036PS","EPOCH":"2026-03-02T22:19:10.467264","MEAN_MOTION":14.17039121,"ECCENTRICITY":0.0154568,"INCLINATION":73.9794,"RA_OF_ASC_NODE":327.1096,"ARG_OF_PERICENTER":134.2341,"MEAN_ANOMALY":356.3304,"EPHEMERIS_TYPE":0,"CLASSIFICATION_TYPE":"U","NORAD_CAT_ID":34344,"ELEMENT_SET_NO":999,"REV_AT_EPOCH":87232,"BSTAR":0.0014754,"MEAN_MOTION_DOT":3.313e-5,"MEAN_MOTION_DDOT":0},{"OBJECT_NAME":"COSMOS 2251 DEB","OBJECT_ID":"1993-036PU","EPOCH":"2026-03-03T17:40:07.540032","MEAN_MOTION":14.0001299,"ECCENTRICITY":0.0208765,"INCLINATION":73.9942,"RA_OF_ASC_NODE":171.6598,"ARG_OF_PERICENTER":331.7439,"MEAN_ANOMALY":179.292,"EPHEMERIS_TYPE":0,"CLASSIFICATION_TYPE":"U","NORAD_CAT_ID":34346,"ELEMENT_SET_NO":999,"REV_AT_EPOCH":86543,"BSTAR":0.00078111,"MEAN_MOTION_DOT":1.362e-5,"MEAN_MOTION_DDOT":0},{"OBJECT_NAME":"COSMOS 2251 DEB","OBJECT_ID":"1993-036PY","EPOCH":"2026-03-03T15:13:47.216928","MEAN_MOTION":15.2143219,"ECCENTRICITY":0.0013042,"INCLINATION":74.0261,"RA_OF_ASC_NODE":129.3964,"ARG_OF_PERICENTER":293.309,"MEAN_ANOMALY":190.344,"EPHEMERIS_TYPE":0,"CLASSIFICATION_TYPE":"U","NORAD_CAT_ID":34383,"ELEMENT_SET_NO":999,"REV_AT_EPOCH":90338,"BSTAR":0.0042307,"MEAN_MOTION_DOT":0.00096478,"MEAN_MOTION_DDOT":0},{"OBJECT_NAME":"COSMOS 2251 DEB","OBJECT_ID":"1993-036QC","EPOCH":"2026-03-03T02:14:32.745984","MEAN_MOTION":14.44047328,"ECCENTRICITY":0.00368704,"INCLINATION":74.0388,"RA_OF_ASC_NODE":62.5117,"ARG_OF_PERICENTER":143.3482,"MEAN_ANOMALY":280.7209,"EPHEMERIS_TYPE":0,"CLASSIFICATION_TYPE":"U","NORAD_CAT_ID":34387,"ELEMENT_SET_NO":999,"REV_AT_EPOCH":89341,"BSTAR":0.00031411295,"MEAN_MOTION_DOT":1.057e-5,"MEAN_MOTION_DDOT":0},{"OBJECT_NAME":"COSMOS 2251 DEB","OBJECT_ID":"1993-036QD","EPOCH":"2026-03-03T11:34:44.565600","MEAN_MOTION":14.49890506,"ECCENTRICITY":0.00100595,"INCLINATION":74.0373,"RA_OF_ASC_NODE":71.6038,"ARG_OF_PERICENTER":106.9112,"MEAN_ANOMALY":14.4218,"EPHEMERIS_TYPE":0,"CLASSIFICATION_TYPE":"U","NORAD_CAT_ID":34388,"ELEMENT_SET_NO":999,"REV_AT_EPOCH":89325,"BSTAR":0.00081749576,"MEAN_MOTION_DOT":3.135e-5,"MEAN_MOTION_DDOT":0},{"OBJECT_NAME":"COSMOS 2251 DEB","OBJECT_ID":"1993-036QE","EPOCH":"2026-03-03T12:10:58.080288","MEAN_MOTION":14.4177446,"ECCENTRICITY":0.00298664,"INCLINATION":74.0166,"RA_OF_ASC_NODE":100.0215,"ARG_OF_PERICENTER":199.2037,"MEAN_ANOMALY":277.0499,"EPHEMERIS_TYPE":0,"CLASSIFICATION_TYPE":"U","NORAD_CAT_ID":34389,"ELEMENT_SET_NO":999,"REV_AT_EPOCH":89176,"BSTAR":0.00039276544,"MEAN_MOTION_DOT":1.263e-5,"MEAN_MOTION_DDOT":0},{"OBJECT_NAME":"COSMOS 2251 DEB","OBJECT_ID":"1993-036QM","EPOCH":"2026-03-03T18:05:36.352608","MEAN_MOTION":14.76938491,"ECCENTRICITY":0.0004913,"INCLINATION":74.0303,"RA_OF_ASC_NODE":325.4746,"ARG_OF_PERICENTER":328.5049,"MEAN_ANOMALY":99.7263,"EPHEMERIS_TYPE":0,"CLASSIFICATION_TYPE":"U","NORAD_CAT_ID":34396,"ELEMENT_SET_NO":999,"REV_AT_EPOCH":89541,"BSTAR":0.0023998,"MEAN_MOTION_DOT":0.00016906,"MEAN_MOTION_DDOT":0},{"OBJECT_NAME":"COSMOS 2251 DEB","OBJECT_ID":"1993-036RA","EPOCH":"2026-03-03T15:52:52.659840","MEAN_MOTION":14.58239576,"ECCENTRICITY":0.008068,"INCLINATION":74.0637,"RA_OF_ASC_NODE":153.1258,"ARG_OF_PERICENTER":208.3752,"MEAN_ANOMALY":278.9713,"EPHEMERIS_TYPE":0,"CLASSIFICATION_TYPE":"U","NORAD_CAT_ID":34409,"ELEMENT_SET_NO":999,"REV_AT_EPOCH":90372,"BSTAR":0.00028388,"MEAN_MOTION_DOT":1.34e-5,"MEAN_MOTION_DDOT":0},{"OBJECT_NAME":"COSMOS 2251 DEB","OBJECT_ID":"1993-036RB","EPOCH":"2026-03-03T11:45:25.888608","MEAN_MOTION":15.29604424,"ECCENTRICITY":0.00262336,"INCLINATION":73.7306,"RA_OF_ASC_NODE":88.3423,"ARG_OF_PERICENTER":277.6175,"MEAN_ANOMALY":82.2046,"EPHEMERIS_TYPE":0,"CLASSIFICATION_TYPE":"U","NORAD_CAT_ID":34410,"ELEMENT_SET_NO":999,"REV_AT_EPOCH":91004,"BSTAR":0.0027051868,"MEAN_MOTION_DOT":0.00079227,"MEAN_MOTION_DDOT":0},{"OBJECT_NAME":"COSMOS 2251 DEB","OBJECT_ID":"1993-036RD","EPOCH":"2026-03-03T16:40:52.529088","MEAN_MOTION":14.48130676,"ECCENTRICITY":0.018857,"INCLINATION":73.9488,"RA_OF_ASC_NODE":172.2209,"ARG_OF_PERICENTER":250.0467,"MEAN_ANOMALY":108.0295,"EPHEMERIS_TYPE":0,"CLASSIFICATION_TYPE":"U","NORAD_CAT_ID":34412,"ELEMENT_SET_NO":999,"REV_AT_EPOCH":88822,"BSTAR":0.0013126,"MEAN_MOTION_DOT":6.093e-5,"MEAN_MOTION_DDOT":0},{"OBJECT_NAME":"COSMOS 2251 DEB","OBJECT_ID":"1993-036RE","EPOCH":"2026-03-03T14:45:04.671360","MEAN_MOTION":14.29760354,"ECCENTRICITY":0.008995,"INCLINATION":74.0294,"RA_OF_ASC_NODE":117.9176,"ARG_OF_PERICENTER":179.0735,"MEAN_ANOMALY":334.8443,"EPHEMERIS_TYPE":0,"CLASSIFICATION_TYPE":"U","NORAD_CAT_ID":34413,"ELEMENT_SET_NO":999,"REV_AT_EPOCH":88286,"BSTAR":0.0011142,"MEAN_MOTION_DOT":2.965e-5,"MEAN_MOTION_DDOT":0},{"OBJECT_NAME":"COSMOS 2251 DEB","OBJECT_ID":"1993-036RM","EPOCH":"2026-03-03T18:02:09.274272","MEAN_MOTION":14.68514818,"ECCENTRICITY":0.0104402,"INCLINATION":74.0333,"RA_OF_ASC_NODE":307.2334,"ARG_OF_PERICENTER":46.7171,"MEAN_ANOMALY":20.5885,"EPHEMERIS_TYPE":0,"CLASSIFICATION_TYPE":"U","NORAD_CAT_ID":34420,"ELEMENT_SET_NO":999,"REV_AT_EPOCH":90959,"BSTAR":0.00021814,"MEAN_MOTION_DOT":1.339e-5,"MEAN_MOTION_DDOT":0},{"OBJECT_NAME":"COSMOS 2251 DEB","OBJECT_ID":"1993-036RS","EPOCH":"2026-03-03T17:04:54.470784","MEAN_MOTION":14.62679629,"ECCENTRICITY":0.002553,"INCLINATION":74.0159,"RA_OF_ASC_NODE":259.2397,"ARG_OF_PERICENTER":1.0719,"MEAN_ANOMALY":359.0497,"EPHEMERIS_TYPE":0,"CLASSIFICATION_TYPE":"U","NORAD_CAT_ID":34425,"ELEMENT_SET_NO":999,"REV_AT_EPOCH":89924,"BSTAR":0.00060585,"MEAN_MOTION_DOT":3.068e-5,"MEAN_MOTION_DDOT":0},{"OBJECT_NAME":"COSMOS 2251 DEB","OBJECT_ID":"1993-036RX","EPOCH":"2026-03-03T15:18:10.686816","MEAN_MOTION":14.39896516,"ECCENTRICITY":0.006111,"INCLINATION":74.0518,"RA_OF_ASC_NODE":154.0734,"ARG_OF_PERICENTER":206.6981,"MEAN_ANOMALY":153.1025,"EPHEMERIS_TYPE":0,"CLASSIFICATION_TYPE":"U","NORAD_CAT_ID":34430,"ELEMENT_SET_NO":999,"REV_AT_EPOCH":89119,"BSTAR":0.0005198,"MEAN_MOTION_DOT":1.644e-5,"MEAN_MOTION_DDOT":0},{"OBJECT_NAME":"COSMOS 2251 DEB","OBJECT_ID":"1993-036RY","EPOCH":"2026-03-03T06:57:10.381536","MEAN_MOTION":14.29074461,"ECCENTRICITY":0.00675699,"INCLINATION":74.076,"RA_OF_ASC_NODE":29.3572,"ARG_OF_PERICENTER":352.29,"MEAN_ANOMALY":7.7203,"EPHEMERIS_TYPE":0,"CLASSIFICATION_TYPE":"U","NORAD_CAT_ID":34431,"ELEMENT_SET_NO":999,"REV_AT_EPOCH":88293,"BSTAR":0.00090251182,"MEAN_MOTION_DOT":2.318e-5,"MEAN_MOTION_DDOT":0}]
