COSMOS 2251 DEB         
1 34343U 93036PR  26062.69375856  .00008715  00000+0  14166-2 0  9993
2 34343  74.0186 292.3737 0022778 189.7538 226.8298 14.71048214899202
COSMOS 2251 DEB         
1 34344U 93036PS  26061.92998226  .00003313  00000+0  14754-2 0  9993
2 34344  73.9794 327.1096 0154568 134.2341 356.3304 14.17039121872329
COSMOS 2251 DEB         
1 34346U 93036PU  26062.73619838  .00001362  00000+0  78111-3 0  9994
2 34346  73.9942 171.6598 0208765 331.7439 179.2920 14.00012990865433
COSMOS 2251 DEB         
1 34383U 93036PY  26062.63457427  .00096478  00000+0  42307-2 0  9997
2 34383  74.0261 129.3964 0013042 293.3090 190.3440 15.21432190903385
COSMOS 2251 DEB         
1 34387U 93036QC  26062.09343456  .00001057  00000+0  31411-3 0  9991
2 34387  74.0388  62.5117 0036870 143.3482 280.7209 14.44047328893418
COSMOS 2251 DEB         
1 34388U 93036QD  26062.48246025  .00003135  00000+0  81750-3 0  9999
2 34388  74.0373  71.6038 0010059 106.9112  14.4218 14.49890506893255
COSMOS 2251 DEB         
1 34389U 93036QE  26062.50761667  .00001263  00000+0  39277-3 0  9994
2 34389  74.0166 100.0215 0029866 199.2037 277.0499 14.41774460891761
COSMOS 2251 DEB         
1 34396U 93036QM  26062.75389297  .00016906  00000+0  23998-2 0  9996
2 34396  74.0303 325.4746 0004913 328.5049  99.7263 14.76938491895418
COSMOS 2251 DEB         
1 34409U 93036RA  26062.66172060  .00001340  00000+0  28388-3 0  9994
2 34409  74.0637 153.1258 0080680 208.3752 278.9713 14.58239576903721
COSMOS 2251 DEB         
1 34410U 93036RB  26062.48988297  .00079227  00000+0  27052-2 0  9998
2 34410  73.7306  88.3423 0026233 277.6175  82.2046 15.29604424910042
COSMOS 2251 DEB         
1 34412U 93036RD  26062.69505242  .00006093  00000+0  13126-2 0  9996
2 34412  73.9488 172.2209 0188570 250.0467 108.0295 14.48130676888224
COSMOS 2251 DEB         
1 34413U 93036RE  26062.61463740  .00002965  00000+0  11142-2 0  9995
2 34413  74.0294 117.9176 0089950 179.0735 334.8443 14.29760354882860
COSMOS 2251 DEB         
1 34420U 93036RM  26062.75149623  .00001339  00000+0  21814-3 0  9991
2 34420  74.0333 307.2334 0104402  46.7171  20.5885 14.68514818909590
COSMOS 2251 DEB         
1 34425U 93036RS  26062.71174156  .00003068  00000+0  60585-3 0  9990
2 34425  74.0159 259.2397 0025530   1.0719 359.0497 14.62679629899247
COSMOS 2251 DEB         
1 34430U 93036RX  26062.63762369  .00001644  00000+0  51980-3 0  9993
2 34430  74.0518 154.0734 0061110 206.6981 153.1025 14.39896516891193
COSMOS 2251 DEB         
1 34431U 93036RY  26062.28970349  .00002318  00000+0  90251-3 0  9997
2 34431  74.0760  29.3572 0067569 352.2900   7.7203 14.29074461882930
